NORAD_CAT_ID,OBJECT_NAME,OBJECT_TYPE,EPOCH,MEAN_MOTION,ECCENTRICITY,INCLINATION,RA_OF_ASC_NODE,ARG_OF_PERICENTER,MEAN_ANOMALY,BSTAR,MEAN_MOTION_DOT,MEAN_MOTION_DDOT,TLE_LINE0,TLE_LINE1,TLE_LINE2,SEMIMAJOR_AXIS,PERIOD,APOGEE,PERIGEE,DECAYED
56471.0,STARLINK-5521,PAYLOAD,2024-01-28 18:58:46,14.98327317,0.0002709,69.9994,268.2635,263.3673,96.7178,-1.6723e-05,-2.92e-06,0.0,0 STARLINK-5521,1 56471U 23064Z   24028.79081368 -.00000292  00000-0 -16723-4 0  9994,2 56471  69.9994 268.2635 0002709 263.3673  96.7178 14.98327317 40626,6950.201,96.107,573.949,570.183,0.0
56471.0,STARLINK-5521,PAYLOAD,2024-01-28 22:11:02,14.98327597,0.00027,69.9993,267.9266,263.0204,97.0648,-1.202e-05,-2.36e-06,0.0,0 STARLINK-5521,1 56471U 23064Z   24028.92433344 -.00000236  00000-0 -12020-4 0  9998,2 56471  69.9993 267.9266 0002700 263.0204  97.0648 14.98327597 40287,6950.2,96.107,573.942,570.189,0.0
56471.0,STARLINK-5521,PAYLOAD,2024-01-29 01:23:18,14.98327857,0.0002778,69.999,267.5895,266.1816,93.9025,-1.419e-05,-2.62e-06,0.0,0 STARLINK-5521,1 56471U 23064Z   24029.05785352 -.00000262  00000-0 -14190-4 0  9991,2 56471  69.9990 267.5895 0002778 266.1816  93.9025 14.98327857 40302,6950.2,96.107,573.995,570.134,0.0
56471.0,STARLINK-5521,PAYLOAD,2024-01-30 01:25:18,14.98337092,0.0002827,69.9988,265.0644,268.5394,91.5441,2.3765e-05,1.91e-06,0.0,0 STARLINK-5521,1 56471U 23064Z   24030.05924407  .00000191  00000-0  23765-4 0  9996,2 56471  69.9988 265.0644 0002827 268.5394  91.5441 14.98337092 40810,6950.171,96.107,574.001,570.071,0.0
56471.0,STARLINK-5521,PAYLOAD,2024-01-30 19:02:47,14.98328061,0.0002947,69.9983,263.2127,269.66,90.4222,3.1043e-06,-5.6e-07,0.0,0 STARLINK-5521,1 56471U 23064Z   24030.79360917 -.00000056  00000-0  31043-5 0  9997,2 56471  69.9983 263.2127 0002947 269.6600  90.4222 14.98328061 40929,6950.199,96.107,574.112,570.016,0.0
56471.0,STARLINK-5521,PAYLOAD,2024-01-30 22:15:03,14.98327911,0.0002943,69.9982,262.8758,269.3917,90.6905,1.5432e-06,-7.5e-07,0.0,0 STARLINK-5521,1 56471U 23064Z   24030.92712934 -.00000075  00000-0  15432-5 0  9997,2 56471  69.9982 262.8758 0002943 269.3917  90.6905 14.98327911 40582,6950.199,96.107,574.11,570.019,0.0
56471.0,STARLINK-5521,PAYLOAD,2024-01-31 14:16:24,14.98326467,0.000283,69.9984,261.1942,269.8046,90.2788,-2.5903e-05,-4.02e-06,0.0,0 STARLINK-5521,1 56471U 23064Z   24031.59473069 -.00000402  00000-0 -25903-4 0  9992,2 56471  69.9984 261.1942 0002830 269.8046  90.2788 14.98326467 40685,6950.204,96.107,574.036,570.102,0.0
56471.0,STARLINK-5521,PAYLOAD,2024-02-01 01:29:21,14.98327576,0.000282,69.9984,260.0163,270.0731,90.0105,-1.1161e-05,-2.26e-06,0.0,0 STARLINK-5521,1 56471U 23064Z   24032.06205037 -.00000226  00000-0 -11161-4 0  9998,2 56471  69.9984 260.0163 0002820 270.0731  90.0105 14.98327576 41114,6950.2,96.107,574.025,570.105,0.0
56471.0,STARLINK-5521,PAYLOAD,2024-02-01 14:18:25,14.98329924,0.0002777,69.9984,258.6686,270.4989,89.5852,4.2647e-05,4.16e-06,0.0,0 STARLINK-5521,1 56471U 23064Z   24032.59612748  .00000416  00000-0  42647-4 0  9999,2 56471  69.9984 258.6686 0002777 270.4989  89.5852 14.98329924 40836,6950.193,96.107,573.988,570.128,0.0
56471.0,STARLINK-5521,PAYLOAD,2024-02-01 23:55:13,14.98332581,0.0002733,69.9984,257.6588,269.4991,90.5854,6.8687e-05,7.27e-06,0.0,0 STARLINK-5521,1 56471U 23064Z   24032.99668462  .00000727  00000-0  68687-4 0  9994,2 56471  69.9984 257.6588 0002733 269.4991  90.5854 14.98332581 41253,6950.185,96.107,573.949,570.15,0.0
56471.0,STARLINK-5521,PAYLOAD,2024-02-02 22:21:06,14.98327144,0.0002705,69.9987,255.302,265.3442,94.7408,1.4773e-06,-7.5e-07,0.0,0 STARLINK-5521,1 56471U 23064Z   24033.93132952 -.00000075  00000-0  14773-5 0  9994,2 56471  69.9987 255.3020 0002705 265.3442  94.7408 14.98327144 41033,6950.202,96.107,573.947,570.187,0.0
56471.0,STARLINK-5521,PAYLOAD,2024-02-02 23:57:14,14.98326971,0.0002706,69.9987,255.1337,265.6219,94.4631,-1.0373e-06,-1.05e-06,0.0,0 STARLINK-5521,1 56471U 23064Z   24033.99808979 -.00000105  00000-0 -10373-5 0  9996,2 56471  69.9987 255.1337 0002706 265.6219  94.4631 14.98326971 41401,6950.202,96.107,573.948,570.187,0.0
56471.0,STARLINK-5521,PAYLOAD,2024-02-03 22:23:07,14.98331092,0.0002695,69.9987,252.7773,266.3367,93.7484,-4.2182e-05,-5.96e-06,0.0,0 STARLINK-5521,1 56471U 23064Z   24034.93272829 -.00000596  00000-0 -42182-4 0  9996,2 56471  69.9987 252.7773 0002695 266.3367  93.7484 14.98331092 41180,6950.19,96.107,573.928,570.181,0.0
56471.0,STARLINK-5521,PAYLOAD,2024-02-03 23:59:15,14.98331269,0.0002742,69.9986,252.6088,268.1959,91.8886,-4.2839e-05,-6.04e-06,0.0,0 STARLINK-5521,1 56471U 23064Z   24034.99948820 -.00000604  00000-0 -42839-4 0  9992,2 56471  69.9986 252.6088 0002742 268.1959  91.8886 14.98331269 41559,6950.189,96.107,573.96,570.148,0.0
56471.0,STARLINK-5521,PAYLOAD,2024-02-04 14:24:28,14.98329038,0.0002791,69.9984,251.0934,269.2583,90.8256,2.3777e-05,1.91e-06,0.0,0 STARLINK-5521,1 56471U 23064Z   24035.60032737  .00000191  00000-0  23777-4 0  9991,2 56471  69.9984 251.0934 0002791 269.2583  90.8256 14.98329038 41280,6950.196,96.107,574.001,570.121,0.0
56471.0,STARLINK-5521,PAYLOAD,2024-02-04 22:25:08,14.98329312,0.00028,69.9984,250.2516,269.2845,90.7993,2.4867e-05,2.04e-06,0.0,0 STARLINK-5521,1 56471U 23064Z   24035.93412722  .00000204  00000-0  24867-4 0  9999,2 56471  69.9984 250.2516 0002800 269.2845  90.7993 14.98329312 41337,6950.195,96.107,574.006,570.114,0.0
56471.0,STARLINK-5521,PAYLOAD,2024-02-05 00:01:16,14.98329837,0.0002794,69.9984,250.0834,269.1232,90.9607,3.0113e-05,2.66e-06,0.0,0 STARLINK-5521,1 56471U 23064Z   24036.00088675  .00000266  00000-0  30113-4 0  9993,2 56471  69.9984 250.0834 0002794 269.1232  90.9607 14.98329837 41706,6950.193,96.107,574.0,570.117,0.0
56471.0,STARLINK-5521,PAYLOAD,2024-02-05 14:26:29,14.98331263,0.0002809,69.9984,248.5688,269.997,90.0867,2.0322e-05,1.49e-06,0.0,0 STARLINK-5521,1 56471U 23064Z   24036.60172615  .00000149  00000-0  20322-4 0  9998,2 56471  69.9984 248.5688 0002809 269.9970  90.0867 14.98331263 41434,6950.189,96.107,574.006,570.102,0.0
56471.0,STARLINK-5521,PAYLOAD,2024-02-05 22:27:09,14.98332045,0.0002806,69.9984,247.7271,269.9332,90.1506,2.8069e-05,2.42e-06,0.0,0 STARLINK-5521,1 56471U 23064Z   24036.93552501  .00000242  00000-0  28069-4 0  9990,2 56471  69.9984 247.7271 0002806 269.9332  90.1506 14.98332045 41487,6950.187,96.107,574.002,570.101,0.0
56471.0,STARLINK-5521,PAYLOAD,2024-02-06 00:03:17,14.98332268,0.0002805,69.9984,247.5588,270.0194,90.0644,3.0009e-05,2.65e-06,0.0,0 STARLINK-5521,1 56471U 23064Z   24037.00228472  .00000265  00000-0  30009-4 0  9998,2 56471  69.9984 247.5588 0002805 270.0194  90.0644 14.98332268 41854,6950.186,96.107,574.0,570.101,0.0
56471.0,STARLINK-5521,PAYLOAD,2024-02-06 14:28:30,14.98331347,0.0002762,69.9985,246.0438,270.6306,89.4537,8.4878e-06,8e-08,0.0,0 STARLINK-5521,1 56471U 23064Z   24037.60312517  .00000008  00000-0  84878-5 0  9997,2 56471  69.9985 246.0438 0002762 270.6306  89.4537 14.98331347 41586,6950.189,96.107,573.973,570.134,0.0
56471.0,STARLINK-5521,PAYLOAD,2024-02-06 22:29:10,14.98331385,0.0002767,69.9986,245.2023,271.1737,88.9105,8.4467e-06,8e-08,0.0,0 STARLINK-5521,1 56471U 23064Z   24037.93692479  .00000008  00000-0  84467-5 0  9995,2 56471  69.9986 245.2023 0002767 271.1737  88.9105 14.98331385 41630,6950.189,96.107,573.977,570.13,0.0
56471.0,STARLINK-5521,PAYLOAD,2024-02-07 00:05:18,14.98331597,0.000276,69.9986,245.0339,270.806,89.2782,1.1152e-05,4e-07,0.0,0 STARLINK-5521,1 56471U 23064Z   24038.00368446  .00000040  00000-0  11152-4 0  9994,2 56471  69.9986 245.0339 0002760 270.8060  89.2782 14.98331597 42008,6950.188,96.107,573.971,570.135,0.0
56471.0,STARLINK-5521,PAYLOAD,2024-02-07 14:30:31,14.98330559,0.0002725,69.9986,243.519,271.1837,88.901,-2.3353e-05,-3.72e-06,0.0,0 STARLINK-5521,1 56471U 23064Z   24038.60452560 -.00000372  00000-0 -23353-4 0  9997,2 56471  69.9986 243.5190 0002725 271.1837  88.9010 14.98330559 41739,6950.191,96.107,573.95,570.162,0.0
56471.0,STARLINK-5521,PAYLOAD,2024-02-07 20:55:03,14.98329847,0.0002733,69.9987,242.8459,269.6681,90.4165,-2.872e-05,-4.36e-06,0.0,0 STARLINK-5521,1 56471U 23064Z   24038.87156591 -.00000436  00000-0 -28720-4 0  9995,2 56471  69.9987 242.8459 0002733 269.6681  90.4165 14.98329847 41779,6950.193,96.107,573.958,570.159,0.0
56471.0,STARLINK-5521,PAYLOAD,2024-02-08 06:31:51,14.9832999,0.0002738,69.9987,241.8355,271.1094,88.9751,-1.5178e-05,-2.74e-06,0.0,0 STARLINK-5521,1 56471U 23064Z   24039.27212543 -.00000274  00000-0 -15178-4 0  9993,2 56471  69.9987 241.8355 0002738 271.1094  88.9751 14.98329990 42193,6950.193,96.107,573.961,570.155,0.0
56471.0,STARLINK-5521,PAYLOAD,2024-02-08 14:32:31,14.98330058,0.0002756,69.9986,240.9938,271.1741,88.9102,-3.3531e-06,-1.33e-06,0.0,0 STARLINK-5521,1 56471U 23064Z   24039.60592483 -.00000133  00000-0 -33531-5 0  9992,2 56471  69.9986 240.9938 0002756 271.1741  88.9102 14.98330058 41880,6950.193,96.107,573.973,570.142,0.0
56471.0,STARLINK-5521,PAYLOAD,2024-02-08 22:33:12,14.98329826,0.0002775,69.9988,240.1522,270.8874,89.1967,-5.0788e-06,-1.54e-06,0.0,0 STARLINK-5521,1 56471U 23064Z   24039.93972493 -.00000154  00000-0 -50788-5 0  9997,2 56471  69.9988 240.1522 0002775 270.8874  89.1967 14.98329826 41936,6950.193,96.107,573.987,570.13,0.0
56471.0,STARLINK-5521,PAYLOAD,2024-02-09 14:34:32,14.98329282,0.00028,69.9988,238.4692,269.8259,90.2579,1.5076e-05,8.7e-07,0.0,0 STARLINK-5521,1 56471U 23064Z   24040.60732433  .00000087  00000-0  15076-4 0  9994,2 56471  69.9988 238.4692 0002800 269.8259  90.2579 14.98329282 42038,6950.195,96.107,574.006,570.114,0.0
56471.0,STARLINK-5521,PAYLOAD,2024-02-09 19:22:56,14.98329642,0.0002799,69.9991,237.9641,269.8812,90.2026,1.9528e-05,1.4e-06,0.0,0 STARLINK-5521,1 56471U 23064Z   24040.80760395  .00000140  00000-0  19528-4 0  9990,2 56471  69.9991 237.9641 0002799 269.8812  90.2026 14.98329642 42422,6950.194,96.107,574.004,570.114,0.0
